[{"OBJECT_NAME":"STARLINK-31515","OBJECT_ID":"2024-068X","EPOCH":"2025-08-01T00:20:58.276032","MEAN_MOTION":15.27570761,"ECCENTRICITY":0.0001259,"INCLINATION":43.0027,"RA_OF_ASC_NODE":200.7426,"ARG_OF_PERICENTER":274.2409,"MEAN_ANOMALY":85.8298,"EPHEMERIS_TYPE":0,"CLASSIFICATION_TYPE":"U","NORAD_CAT_ID":59476,"ELEMENT_SET_NO":999,"REV_AT_EPOCH":7476,"BSTAR":-3.5972e-5,"MEAN_MOTION_DOT":-1.251e-5,"MEAN_MOTION_DDOT":0},{"OBJECT_NAME":"STARLINK-31531","OBJECT_ID":"2024-068Y","EPOCH":"2025-08-01T04:10:17.809536","MEAN_MOTION":15.27605577,"ECCENTRICITY":0.000181,"INCLINATION":43.0015,"RA_OF_ASC_NODE":144.7168,"ARG_OF_PERICENTER":258.641,"MEAN_ANOMALY":101.4238,"EPHEMERIS_TYPE":0,"CLASSIFICATION_TYPE":"U","NORAD_CAT_ID":59477,"ELEMENT_SET_NO":999,"REV_AT_EPOCH":7542,"BSTAR":-0.00012233,"MEAN_MOTION_DOT":-3.63e-5,"MEAN_MOTION_DDOT":0},{"OBJECT_NAME":"STARLINK-31753","OBJECT_ID":"2024-071A","EPOCH":"2025-08-01T03:13:11.622720","MEAN_MOTION":15.27555577,"ECCENTRICITY":0.0001391,"INCLINATION":43.0029,"RA_OF_ASC_NODE":145.395,"ARG_OF_PERICENTER":276.4015,"MEAN_ANOMALY":83.6679,"EPHEMERIS_TYPE":0,"CLASSIFICATION_TYPE":"U","NORAD_CAT_ID":59484,"ELEMENT_SET_NO":999,"REV_AT_EPOCH":7443,"BSTAR":-8.3323e-5,"MEAN_MOTION_DOT":-2.552e-5,"MEAN_MOTION_DDOT":0},{"OBJECT_NAME":"STARLINK-31733","OBJECT_ID":"2024-071C","EPOCH":"2025-08-01T04:04:46.581312","MEAN_MOTION":15.27586264,"ECCENTRICITY":0.0001303,"INCLINATION":43.0003,"RA_OF_ASC_NODE":144.8081,"ARG_OF_PERICENTER":264.1757,"MEAN_ANOMALY":95.8946,"EPHEMERIS_TYPE":0,"CLASSIFICATION_TYPE":"U","NORAD_CAT_ID":59486,"ELEMENT_SET_NO":999,"REV_AT_EPOCH":7445,"BSTAR":2.9217e-6,"MEAN_MOTION_DOT":-1.82e-6,"MEAN_MOTION_DDOT":0},{"OBJECT_NAME":"STARLINK-31657","OBJECT_ID":"2024-071D","EPOCH":"2025-07-31T23:46:22.676736","MEAN_MOTION":15.2757242,"ECCENTRICITY":7.39e-5,"INCLINATION":42.9991,"RA_OF_ASC_NODE":146.0428,"ARG_OF_PERICENTER":272.5973,"MEAN_ANOMALY":87.4794,"EPHEMERIS_TYPE":0,"CLASSIFICATION_TYPE":"U","NORAD_CAT_ID":59487,"ELEMENT_SET_NO":999,"REV_AT_EPOCH":7446,"BSTAR":-4.9229e-5,"MEAN_MOTION_DOT":-1.616e-5,"MEAN_MOTION_DDOT":0},{"OBJECT_NAME":"STARLINK-31754","OBJECT_ID":"2024-071E","EPOCH":"2025-08-01T04:14:41.599104","MEAN_MOTION":15.27585877,"ECCENTRICITY":0.0001211,"INCLINATION":43.0016,"RA_OF_ASC_NODE":152.6416,"ARG_OF_PERICENTER":250.4474,"MEAN_ANOMALY":109.6247,"EPHEMERIS_TYPE":0,"CLASSIFICATION_TYPE":"U","NORAD_CAT_ID":59488,"ELEMENT_SET_NO":999,"REV_AT_EPOCH":7440,"BSTAR":9.5077e-5,"MEAN_MOTION_DOT":2.356e-5,"MEAN_MOTION_DDOT":0},{"OBJECT_NAME":"STARLINK-31638","OBJECT_ID":"2024-071F","EPOCH":"2025-07-31T23:44:32.451072","MEAN_MOTION":15.27549423,"ECCENTRICITY":0.0001421,"INCLINATION":43.003,"RA_OF_ASC_NODE":146.0334,"ARG_OF_PERICENTER":241.9005,"MEAN_ANOMALY":118.1703,"EPHEMERIS_TYPE":0,"CLASSIFICATION_TYPE":"U","NORAD_CAT_ID":59489,"ELEMENT_SET_NO":999,"REV_AT_EPOCH":7442,"BSTAR":-2.1348e-5,"MEAN_MOTION_DOT":-8.49e-6,"MEAN_MOTION_DDOT":0},{"OBJECT_NAME":"STARLINK-31670","OBJECT_ID":"2024-071G","EPOCH":"2025-07-31T22:38:06.114912","MEAN_MOTION":15.2757467,"ECCENTRICITY":7.84e-5,"INCLINATION":42.9988,"RA_OF_ASC_NODE":157.8113,"ARG_OF_PERICENTER":258.399,"MEAN_ANOMALY":101.6773,"EPHEMERIS_TYPE":0,"CLASSIFICATION_TYPE":"U","NORAD_CAT_ID":59490,"ELEMENT_SET_NO":999,"REV_AT_EPOCH":7428,"BSTAR":-4.3396e-5,"MEAN_MOTION_DOT":-1.456e-5,"MEAN_MOTION_DDOT":0},{"OBJECT_NAME":"STARLINK-31712","OBJECT_ID":"2024-071H","EPOCH":"2025-08-01T04:56:33.864864","MEAN_MOTION":15.27578411,"ECCENTRICITY":9.93e-5,"INCLINATION":43.0007,"RA_OF_ASC_NODE":156.3225,"ARG_OF_PERICENTER":244.0699,"MEAN_ANOMALY":116.005,"EPHEMERIS_TYPE":0,"CLASSIFICATION_TYPE":"U","NORAD_CAT_ID":59491,"ELEMENT_SET_NO":999,"REV_AT_EPOCH":7436,"BSTAR":4.1516e-5,"MEAN_MOTION_DOT":8.81e-6,"MEAN_MOTION_DDOT":0},{"OBJECT_NAME":"STARLINK-31684","OBJECT_ID":"2024-071J","EPOCH":"2025-08-01T04:20:14.910432","MEAN_MOTION":15.27583446,"ECCENTRICITY":0.0001432,"INCLINATION":43.002,"RA_OF_ASC_NODE":152.6702,"ARG_OF_PERICENTER":257.6166,"MEAN_ANOMALY":102.4526,"EPHEMERIS_TYPE":0,"CLASSIFICATION_TYPE":"U","NORAD_CAT_ID":59492,"ELEMENT_SET_NO":999,"REV_AT_EPOCH":7436,"BSTAR":4.0007e-5,"MEAN_MOTION_DOT":8.39e-6,"MEAN_MOTION_DDOT":0},{"OBJECT_NAME":"STARLINK-31678","OBJECT_ID":"2024-071K","EPOCH":"2025-07-31T12:49:47.768160","MEAN_MOTION":15.27583193,"ECCENTRICITY":8.28e-5,"INCLINATION":43.0025,"RA_OF_ASC_NODE":156.4212,"ARG_OF_PERICENTER":269.3207,"MEAN_ANOMALY":90.755,"EPHEMERIS_TYPE":0,"CLASSIFICATION_TYPE":"U","NORAD_CAT_ID":59493,"ELEMENT_SET_NO":999,"REV_AT_EPOCH":7432,"BSTAR":-6.2572e-5,"MEAN_MOTION_DOT":-1.983e-5,"MEAN_MOTION_DDOT":0},{"OBJECT_NAME":"STARLINK-31744","OBJECT_ID":"2024-071L","EPOCH":"2025-07-31T22:09:11.329920","MEAN_MOTION":15.27574975,"ECCENTRICITY":8.97e-5,"INCLINATION":42.9973,"RA_OF_ASC_NODE":154.1747,"ARG_OF_PERICENTER":266.7516,"MEAN_ANOMALY":93.3233,"EPHEMERIS_TYPE":0,"CLASSIFICATION_TYPE":"U","NORAD_CAT_ID":59494,"ELEMENT_SET_NO":999,"REV_AT_EPOCH":7435,"BSTAR":-2.464e-5,"MEAN_MOTION_DOT":-9.4e-6,"MEAN_MOTION_DDOT":0},{"OBJECT_NAME":"STARLINK-31719","OBJECT_ID":"2024-071M","EPOCH":"2025-08-01T03:31:41.120544","MEAN_MOTION":15.27580269,"ECCENTRICITY":0.0001468,"INCLINATION":43.0028,"RA_OF_ASC_NODE":145.4958,"ARG_OF_PERICENTER":254.2951,"MEAN_ANOMALY":105.7738,"EPHEMERIS_TYPE":0,"CLASSIFICATION_TYPE":"U","NORAD_CAT_ID":59495,"ELEMENT_SET_NO":999,"REV_AT_EPOCH":7449,"BSTAR":1.6742e-5,"MEAN_MOTION_DOT":1.99e-6,"MEAN_MOTION_DDOT":0},{"OBJECT_NAME":"STARLINK-31728","OBJECT_ID":"2024-071N","EPOCH":"2025-08-01T04:36:14.269248","MEAN_MOTION":15.27599595,"ECCENTRICITY":0.0001535,"INCLINATION":42.9995,"RA_OF_ASC_NODE":144.9764,"ARG_OF_PERICENTER":271.2279,"MEAN_ANOMALY":88.8396,"EPHEMERIS_TYPE":0,"CLASSIFICATION_TYPE":"U","NORAD_CAT_ID":59496,"ELEMENT_SET_NO":999,"REV_AT_EPOCH":7444,"BSTAR":0.0013621,"MEAN_MOTION_DOT":0.00037433,"MEAN_MOTION_DDOT":0},{"OBJECT_NAME":"STARLINK-31720","OBJECT_ID":"2024-071P","EPOCH":"2025-07-31T23:13:16.566240","MEAN_MOTION":15.27573588,"ECCENTRICITY":9.21e-5,"INCLINATION":43.0016,"RA_OF_ASC_NODE":146.7317,"ARG_OF_PERICENTER":256.0159,"MEAN_ANOMALY":104.059,"EPHEMERIS_TYPE":0,"CLASSIFICATION_TYPE":"U","NORAD_CAT_ID":59497,"ELEMENT_SET_NO":999,"REV_AT_EPOCH":7441,"BSTAR":1.6126e-5,"MEAN_MOTION_DOT":1.82e-6,"MEAN_MOTION_DDOT":0},{"OBJECT_NAME":"STARLINK-31731","OBJECT_ID":"2024-071Q","EPOCH":"2025-08-01T07:11:14.597664","MEAN_MOTION":15.27598038,"ECCENTRICITY":0.0001477,"INCLINATION":42.998,"RA_OF_ASC_NODE":144.0572,"ARG_OF_PERICENTER":262.0724,"MEAN_ANOMALY":97.996,"EPHEMERIS_TYPE":0,"CLASSIFICATION_TYPE":"U","NORAD_CAT_ID":59498,"ELEMENT_SET_NO":999,"REV_AT_EPOCH":7451,"BSTAR":0.00098179,"MEAN_MOTION_DOT":0.00026868,"MEAN_MOTION_DDOT":0},{"OBJECT_NAME":"STARLINK-31742","OBJECT_ID":"2024-071R","EPOCH":"2025-07-31T12:34:19.547040","MEAN_MOTION":15.27584958,"ECCENTRICITY":6.51e-5,"INCLINATION":43.0009,"RA_OF_ASC_NODE":148.5578,"ARG_OF_PERICENTER":234.2249,"MEAN_ANOMALY":125.8542,"EPHEMERIS_TYPE":0,"CLASSIFICATION_TYPE":"U","NORAD_CAT_ID":59499,"ELEMENT_SET_NO":999,"REV_AT_EPOCH":7438,"BSTAR":-6.8784e-5,"MEAN_MOTION_DOT":-2.154e-5,"MEAN_MOTION_DDOT":0}]
