STARLINK-31515          
1 59476U 24068X   25213.01456338 -.00001251  00000+0 -35972-4 0  9994
2 59476  43.0027 200.7426 0001259 274.2409  85.8298 15.27570761 74760
STARLINK-31531          
1 59477U 24068Y   25213.17381724 -.00003630  00000+0 -12233-3 0  9995
2 59477  43.0015 144.7168 0001810 258.6410 101.4238 15.27605577 75426
STARLINK-31753          
1 59484U 24071A   25213.13416230 -.00002552  00000+0 -83323-4 0  9995
2 59484  43.0029 145.3950 0001391 276.4015  83.6679 15.27555577 74432
STARLINK-31733          
1 59486U 24071C   25213.16998358 -.00000182  00000+0  29217-5 0  9995
2 59486  43.0003 144.8081 0001303 264.1757  95.8946 15.27586264 74456
STARLINK-31657          
1 59487U 24071D   25212.99054024 -.00001616  00000+0 -49229-4 0  9997
2 59487  42.9991 146.0428 0000739 272.5973  87.4794 15.27572420 74463
STARLINK-31754          
1 59488U 24071E   25213.17687036  .00002356  00000+0  95077-4 0  9996
2 59488  43.0016 152.6416 0001211 250.4474 109.6247 15.27585877 74405
STARLINK-31638          
1 59489U 24071F   25212.98926448 -.00000849  00000+0 -21348-4 0  9995
2 59489  43.0030 146.0334 0001421 241.9005 118.1703 15.27549423 74427
STARLINK-31670          
1 59490U 24071G   25212.94312633 -.00001456  00000+0 -43396-4 0  9990
2 59490  42.9988 157.8113 0000784 258.3990 101.6773 15.27574670 74280
STARLINK-31712          
1 59491U 24071H   25213.20594751  .00000881  00000+0  41516-4 0  9995
2 59491  43.0007 156.3225 0000993 244.0699 116.0050 15.27578411 74367
STARLINK-31684          
1 59492U 24071J   25213.18072813  .00000839  00000+0  40007-4 0  9990
2 59492  43.0020 152.6702 0001432 257.6166 102.4526 15.27583446 74361
STARLINK-31678          
1 59493U 24071K   25212.53458065 -.00001983  00000+0 -62572-4 0  9990
2 59493  43.0025 156.4212 0000828 269.3207  90.7550 15.27583193 74320
STARLINK-31744          
1 59494U 24071L   25212.92304780 -.00000940  00000+0 -24640-4 0  9994
2 59494  42.9973 154.1747 0000897 266.7516  93.3233 15.27574975 74357
STARLINK-31719          
1 59495U 24071M   25213.14700371  .00000199  00000+0  16742-4 0  9994
2 59495  43.0028 145.4958 0001468 254.2951 105.7738 15.27580269 74494
STARLINK-31728          
1 59496U 24071N   25213.19183182  .00037433  00000+0  13621-2 0  9997
2 59496  42.9995 144.9764 0001535 271.2279  88.8396 15.27599595 74440
STARLINK-31720          
1 59497U 24071P   25212.96755285  .00000182  00000+0  16126-4 0  9997
2 59497  43.0016 146.7317 0000921 256.0159 104.0590 15.27573588 74415
STARLINK-31731          
1 59498U 24071Q   25213.29947451  .00026868  00000+0  98179-3 0  9999
2 59498  42.9980 144.0572 0001477 262.0724  97.9960 15.27598038 74519
STARLINK-31742          
1 59499U 24071R   25212.52383735 -.00002154  00000+0 -68784-4 0  9998
2 59499  43.0009 148.5578 0000651 234.2249 125.8542 15.27584958 74383
